[{"OBJECT_NAME":"DMC3-FM1","OBJECT_ID":"2015-032A","EPOCH":"2026-03-09T22:19:47.710848","MEAN_MOTION":14.85617645,"ECCENTRICITY":0.00064603,"INCLINATION":97.6608,"RA_OF_ASC_NODE":297.9178,"ARG_OF_PERICENTER":33.342,"MEAN_ANOMALY":326.8201,"EPHEMERIS_TYPE":0,"CLASSIFICATION_TYPE":"U","NORAD_CAT_ID":40715,"ELEMENT_SET_NO":999,"REV_AT_EPOCH":57517,"BSTAR":0.0002262111,"MEAN_MOTION_DOT":1.907e-5,"MEAN_MOTION_DDOT":0},{"OBJECT_NAME":"THOR AGENA B R\/B","OBJECT_ID":"1965-098C","EPOCH":"2026-03-09T15:40:12.733824","MEAN_MOTION":12.27969783,"ECCENTRICITY":0.13310603,"INCLINATION":79.835,"RA_OF_ASC_NODE":125.8522,"ARG_OF_PERICENTER":232.6333,"MEAN_ANOMALY":114.6139,"EPHEMERIS_TYPE":0,"CLASSIFICATION_TYPE":"U","NORAD_CAT_ID":1807,"ELEMENT_SET_NO":999,"REV_AT_EPOCH":66108,"BSTAR":0.00040632197,"MEAN_MOTION_DOT":1.226e-5,"MEAN_MOTION_DDOT":0}]
